NORAD_CAT_ID,OBJECT_NAME,OBJECT_TYPE,EPOCH,MEAN_MOTION,ECCENTRICITY,INCLINATION,RA_OF_ASC_NODE,ARG_OF_PERICENTER,MEAN_ANOMALY,BSTAR,MEAN_MOTION_DOT,MEAN_MOTION_DDOT,TLE_LINE0,TLE_LINE1,TLE_LINE2,SEMIMAJOR_AXIS,PERIOD,APOGEE,PERIGEE,DECAYED
52879.0,STARLINK-4139,PAYLOAD,2023-01-15 17:09:24,15.088514000000002,0.0001921999999999,53.2161,132.0688,59.696000000000005,300.4222,0.0018847999999999,0.00029846,0.0,0 STARLINK-4139,1 52879U 22062BB  23015.71486316  .00029846  00000-0  18848-2 0  9990,2 52879  53.2161 132.0688 0001922  59.6960 300.4222 15.08851400 33100,6917.846,95.437,541.04,538.381,0.0
52879.0,STARLINK-4139,PAYLOAD,2023-01-16 01:06:19,15.08857877,0.0001355,53.2171,130.5813,64.8771,295.2362,0.0018027999999999,0.00028534,0.0,0 STARLINK-4139,1 52879U 22062BB  23016.04606284  .00028534  00000-0  18028-2 0  9998,2 52879  53.2171 130.5813 0001355  64.8771 295.2362 15.08857877 33157,6917.826,95.436,540.628,538.753,0.0
52879.0,STARLINK-4139,PAYLOAD,2023-01-16 13:49:24,15.08860015,0.0001647,53.2172,128.2013,79.6702,280.4476,0.00094246,0.00014751,0.0,0 STARLINK-4139,1 52879U 22062BB  23016.57598023  .00014751  00000-0  94246-3 0  9990,2 52879  53.2172 128.2013 0001647  79.6702 280.4476 15.08860015 33235,6917.819,95.436,540.8240000000001,538.545,0.0
52879.0,STARLINK-4139,PAYLOAD,2023-01-17 13:40:12,15.08832632,0.0001107,53.217,123.7412,76.7098,283.4018,0.00043348,6.616e-05,0.0,0 STARLINK-4139,1 52879U 22062BB  23017.56959060  .00006616  00000-0  43348-3 0  9990,2 52879  53.2170 123.7412 0001107  76.7098 283.4018 15.08832632 33388,6917.903,95.438,540.534,539.002,0.0
52879.0,STARLINK-4139,PAYLOAD,2023-01-17 16:50:59,15.08832816,0.0001379,53.2182,123.1465,81.3569,278.7579,0.0012343,0.00019407,0.0,0 STARLINK-4139,1 52879U 22062BB  23017.70207381  .00019407  00000-0  12343-2 0  9990,2 52879  53.2182 123.1465 0001379  81.3569 278.7579 15.08832816 32910,6917.901999999999,95.438,540.721,538.813,0.0
52879.0,STARLINK-4139,PAYLOAD,2023-01-18 13:30:59,15.08879607,0.0001449,53.2175,119.2827,85.2281,274.8877,0.0024866999999999,0.00039553,0.0,0 STARLINK-4139,1 52879U 22062BB  23018.56318922  .00039553  00000-0  24867-2 0  9997,2 52879  53.2175 119.2827 0001449  85.2281 274.8877 15.08879607 33044,6917.759,95.435,540.627,538.622,0.0
52879.0,STARLINK-4139,PAYLOAD,2023-01-19 05:24:50,15.08852778,0.0002194,53.2161,116.3083,88.7381,271.3863,0.00031473,4.726e-05,0.0,0 STARLINK-4139,1 52879U 22062BB  23019.22558774  .00004726  00000-0  31473-3 0  9998,2 52879  53.2161 116.3083 0002194  88.7381 271.3863 15.08852778 33630,6917.840999999999,95.437,541.224,538.189,0.0
52879.0,STARLINK-4139,PAYLOAD,2023-01-19 07:00:13,15.088432,0.0001546,53.2172,116.0117,104.0637,256.0527,0.00028761,4.293e-05,0.0,0 STARLINK-4139,1 52879U 22062BB  23019.29182782  .00004293  00000-0  28761-3 0  9992,2 52879  53.2172 116.0117 0001546 104.0637 256.0527 15.08843200 33641,6917.871,95.437,540.805,538.6659999999999,0.0
52879.0,STARLINK-4139,PAYLOAD,2023-01-19 10:11:00,15.08854626,0.0001614,53.2179,115.4172,102.7756,257.3416,0.00042101,6.421e-05,0.0,0 STARLINK-4139,1 52879U 22062BB  23019.42430595  .00006421  00000-0  42101-3 0  9994,2 52879  53.2179 115.4172 0001614 102.7756 257.3416 15.08854626 33178,6917.835999999999,95.437,540.817,538.5840000000001,0.0
52879.0,STARLINK-4139,PAYLOAD,2023-01-19 11:46:23,15.08857201,0.0001617,53.2179,115.1197,103.1384,256.9789,0.00055468,8.555e-05,0.0,0 STARLINK-4139,1 52879U 22062BB  23019.49054520  .00008555  00000-0  55468-3 0  9991,2 52879  53.2179 115.1197 0001617 103.1384 256.9789 15.08857201 33672,6917.828,95.436,540.811,538.5740000000001,0.0
52879.0,STARLINK-4139,PAYLOAD,2023-01-20 11:37:10,15.08823107,0.0001416,53.2178,110.6595,82.2337,277.8816,0.001234,0.00019397,0.0,0 STARLINK-4139,1 52879U 22062BB  23020.48415121  .00019397  00000-0  12340-2 0  9997,2 52879  53.2178 110.6595 0001416  82.2337 277.8816 15.08823107 33823,6917.932,95.439,540.7769999999999,538.817,0.0
52879.0,STARLINK-4139,PAYLOAD,2023-01-21 11:27:57,15.08848426,0.000158,53.2184,106.2003,90.3901,269.7272,0.00090888,0.0001421,0.0,0 STARLINK-4139,1 52879U 22062BB  23021.47775359  .00014210  00000-0  90888-3 0  9992,2 52879  53.2184 106.2003 0001580  90.3901 269.7272 15.08848426 33977,6917.855,95.437,540.813,538.627,0.0
52879.0,STARLINK-4139,PAYLOAD,2023-01-22 06:32:35,15.08855465,0.0001723,53.2182,102.6336,66.0409,294.0763,0.00095059,0.00014879,0.0,0 STARLINK-4139,1 52879U 22062BB  23022.27263395  .00014879  00000-0  95059-3 0  9999,2 52879  53.2182 102.6336 0001723  66.0409 294.0763 15.08855465 34097,6917.8330000000005,95.437,540.89,538.506,0.0
52879.0,STARLINK-4139,PAYLOAD,2023-01-23 04:47:59,15.08842774,0.0001339,53.2187,98.4697,82.3934,277.721,0.00052998,8.157e-05,0.0,0 STARLINK-4139,1 52879U 22062BB  23023.19999396  .00008157  00000-0  52998-3 0  9995,2 52879  53.2187  98.4697 0001339  82.3934 277.7210 15.08842774 34231,6917.871999999999,95.437,540.663,538.811,0.0
52879.0,STARLINK-4139,PAYLOAD,2023-01-24 04:38:46,15.08841936,0.0001121,53.2192,94.0094,93.3357,266.7764,0.0003786,5.743e-05,0.0,0 STARLINK-4139,1 52879U 22062BB  23024.19359529  .00005743  00000-0  37860-3 0  9993,2 52879  53.2192  94.0094 0001121  93.3357 266.7764 15.08841936 34387,6917.874,95.437,540.515,538.964,0.0
52879.0,STARLINK-4139,PAYLOAD,2023-01-25 04:29:33,15.08836435,0.0001519,53.2187,89.5483,110.104,250.0116,8.8031e-05,1.113e-05,0.0,0 STARLINK-4139,1 52879U 22062BB  23025.18719826  .00001113  00000-0  88031-4 0  9997,2 52879  53.2187  89.5483 0001519 110.1040 250.0116 15.08836435 34532,6917.891,95.438,540.807,538.705,0.0
52879.0,STARLINK-4139,PAYLOAD,2023-01-25 10:51:06,15.08837777,0.0001189999999999,53.2174,88.3572,106.8385,253.2738,9.5178e-05,1.227e-05,0.0,0 STARLINK-4139,1 52879U 22062BB  23025.45215848  .00001227  00000-0  95178-4 0  9998,2 52879  53.2174  88.3572 0001190 106.8385 253.2738 15.08837777 34088,6917.887,95.438,540.575,538.929,0.0
52879.0,STARLINK-4139,PAYLOAD,2023-01-26 07:31:07,15.08843716,0.0001065,53.2177,84.4918,102.8171,257.29400000000004,0.0001396999999999,1.936e-05,0.0,0 STARLINK-4139,1 52879U 22062BB  23026.31327670  .00001936  00000-0  13970-3 0  9997,2 52879  53.2177  84.4918 0001065 102.8171 257.2940 15.08843716 34700,6917.869000000001,95.437,540.471,538.997,0.0
52879.0,STARLINK-4139,PAYLOAD,2023-01-26 10:41:53,15.08849748,0.0001147,53.2178,83.8968,105.9055,254.2064,0.00022219,3.251e-05,0.0,0 STARLINK-4139,1 52879U 22062BB  23026.44575360  .00003251  00000-0  22219-3 0  9990,2 52879  53.2178  83.8968 0001147 105.9055 254.2064 15.08849748 34238,6917.851,95.437,540.509,538.922,0.0
52879.0,STARLINK-4139,PAYLOAD,2023-01-27 04:11:08,15.0883887,0.0001296999999999,53.2184,80.6273,108.9116,251.2017,0.00010463,1.378e-05,0.0,0 STARLINK-4139,1 52879U 22062BB  23027.17439904  .00001378  00000-0  10463-3 0  9990,2 52879  53.2184  80.6273 0001297 108.9116 251.2017 15.08838870 34831,6917.884,95.438,540.646,538.852,0.0
52879.0,STARLINK-4139,PAYLOAD,2023-01-27 12:08:03,15.08845294,0.0001207,53.2189,79.1421,102.8783,257.2344,0.00019497,2.817e-05,0.0,0 STARLINK-4139,1 52879U 22062BB  23027.50559576  .00002817  00000-0  19497-3 0  9990,2 52879  53.2189  79.1421 0001207 102.8783 257.2344 15.08845294 34396,6917.8640000000005,95.437,540.564,538.894,0.0
52879.0,STARLINK-4139,PAYLOAD,2023-01-27 20:04:59,15.08844013,0.0001103,53.2177,77.6528,93.6925,266.4193,0.0001151,1.545e-05,0.0,0 STARLINK-4139,1 52879U 22062BB  23027.83679602  .00001545  00000-0  11510-3 0  9994,2 52879  53.2177  77.6528 0001103  93.6925 266.4193 15.08844013 34442,6917.868,95.437,540.496,538.97,0.0
52879.0,STARLINK-4139,PAYLOAD,2023-01-28 13:34:13,15.08840067,0.0001171,53.2178,74.3809,94.2166,265.896,1.1992e-05,-9.7e-07,0.0,0 STARLINK-4139,1 52879U 22062BB  23028.56543827 -.00000097  00000-0  11992-4 0  9991,2 52879  53.2178  74.3809 0001171  94.2166 265.8960 15.08840067 35045,6917.88,95.438,540.555,538.935,0.0
52879.0,STARLINK-4139,PAYLOAD,2023-01-28 19:55:46,15.08838726,0.0001152,53.2175,73.1909,91.0276,269.0849,-5.0012e-05,-1.084e-05,0.0,0 STARLINK-4139,1 52879U 22062BB  23028.83039979 -.00001084  00000-0 -50012-4 0  9993,2 52879  53.2175  73.1909 0001152  91.0276 269.0849 15.08838726 34596,6917.884,95.438,540.546,538.952,0.0
52879.0,STARLINK-4139,PAYLOAD,2023-01-29 19:46:33,15.08842249,0.0001212,53.2172,68.7303,89.827,270.2861,0.00023547,3.462e-05,0.0,0 STARLINK-4139,1 52879U 22062BB  23029.82400146  .00003462  00000-0  23547-3 0  9993,2 52879  53.2172  68.7303 0001212  89.8270 270.2861 15.08842249 35232,6917.874,95.437,540.577,538.9,0.0
52879.0,STARLINK-4139,PAYLOAD,2023-01-30 11:40:25,15.08846087,0.0001324,53.2171,65.7569,88.4633,271.6511,0.00023354,3.431e-05,0.0,0 STARLINK-4139,1 52879U 22062BB  23030.48640089  .00003431  00000-0  23354-3 0  9991,2 52879  53.2171  65.7569 0001324  88.4633 271.6511 15.08846087 34841,6917.862,95.437,540.643,538.811,0.0
52879.0,STARLINK-4139,PAYLOAD,2023-01-30 19:37:20,15.08844308,0.0001351,53.2168,64.2708,87.1238,272.9909,0.00016394,2.322e-05,0.0,0 STARLINK-4139,1 52879U 22062BB  23030.81760138  .00002322  00000-0  16394-3 0  9990,2 52879  53.2168  64.2708 0001351  87.1238 272.9909 15.08844308 34897,6917.867,95.437,540.667,538.798,0.0
52879.0,STARLINK-4139,PAYLOAD,2023-01-30 22:48:07,15.08840169,0.0001501,53.216,63.6769,85.6878,274.4286,7.8494e-05,9.61e-06,0.0,0 STARLINK-4139,1 52879U 22062BB  23030.95008345  .00000961  00000-0  78494-4 0  9997,2 52879  53.2160  63.6769 0001501  85.6878 274.4286 15.08840169 35403,6917.88,95.438,540.783,538.706,0.0
52879.0,STARLINK-4139,PAYLOAD,2023-01-31 11:31:12,15.08844103,0.0001366,53.2167,61.296,97.4169,262.6978,9.5611e-05,1.234e-05,0.0,0 STARLINK-4139,1 52879U 22062BB  23031.48000164  .00001234  00000-0  95611-4 0  9991,2 52879  53.2167  61.2960 0001366  97.4169 262.6978 15.08844103 34992,6917.868,95.437,540.678,538.788,0.0
